{
  "type": "FeatureCollection",
  "features": [
    {
      "type": "Feature",
      "properties": {
        "norad_id": 36083,
        "name": "IRIDIUM 33 DEB",
        "group": "iridium-33-debris",
        "lat": 45.91890808243772,
        "lon": 40.53945315236926,
        "alt_km": 760.8357024095558,
        "timestamp": "2025-12-06T16:45:43.106937+00:00",
        "meta_object_name": "IRIDIUM 33 DEB",
        "meta_object_id": "1997-051VQ",
        "meta_epoch": "2025-12-05T10:35:43.405440",
        "meta_mean_motion": 14.431662,
        "meta_eccentricity": 0.00246853,
        "meta_inclination": 86.3444,
        "meta_ra_of_asc_node": 37.2951,
        "meta_arg_of_pericenter": 248.4284,
        "meta_mean_anomaly": 111.4286,
        "meta_ephemeris_type": 0,
        "meta_classification_type": "U",
        "meta_norad_cat_id": 36083,
        "meta_element_set_no": 999,
        "meta_rev_at_epoch": 85344,
        "meta_bstar": 0.0011291475,
        "meta_mean_motion_dot": 3.825e-05,
        "meta_mean_motion_ddot": 0,
        "tle_line1": "1 36083U 97051VQ  25339.44147460  .00003825  00000+0  11291-2 0  9997",
        "tle_line2": "2 36083  86.3444  37.2951 0024685 248.4284 111.4286 14.43166200853449"
      },
      "geometry": {
        "type": "Point",
        "coordinates": [
          40.53945315236926,
          45.91890808243772
        ]
      }
    },
    {
      "type": "Feature",
      "properties": {
        "norad_id": 36390,
        "name": "IRIDIUM 33 DEB",
        "group": "iridium-33-debris",
        "lat": -74.2405436421218,
        "lon": -71.13526324541839,
        "alt_km": 661.5887231311744,
        "timestamp": "2025-12-06T16:45:43.106946+00:00",
        "meta_object_name": "IRIDIUM 33 DEB",
        "meta_object_id": "1997-051VU",
        "meta_epoch": "2025-11-30T04:37:26.668128",
        "meta_mean_motion": 14.73329322,
        "meta_eccentricity": 0.00285998,
        "meta_inclination": 86.289,
        "meta_ra_of_asc_node": 305.1428,
        "meta_arg_of_pericenter": 206.0853,
        "meta_mean_anomaly": 153.8925,
        "meta_ephemeris_type": 0,
        "meta_classification_type": "U",
        "meta_norad_cat_id": 36390,
        "meta_element_set_no": 999,
        "meta_rev_at_epoch": 66077,
        "meta_bstar": 0.001268982,
        "meta_mean_motion_dot": 8.29e-05,
        "meta_mean_motion_ddot": 0,
        "tle_line1": "1 36390U 97051VU  25334.19266977  .00008290  00000+0  12690-2 0  9995",
        "tle_line2": "2 36390  86.2890 305.1428 0028599 206.0853 153.8925 14.73329322660771"
      },
      "geometry": {
        "type": "Point",
        "coordinates": [
          -71.13526324541839,
          -74.2405436421218
        ]
      }
    },
    {
      "type": "Feature",
      "properties": {
        "norad_id": 36483,
        "name": "IRIDIUM 33 DEB",
        "group": "iridium-33-debris",
        "lat": 26.72250493335665,
        "lon": -126.75058064000063,
        "alt_km": 731.1415901837363,
        "timestamp": "2025-12-06T16:45:43.106956+00:00",
        "meta_object_name": "IRIDIUM 33 DEB",
        "meta_object_id": "1997-051VZ",
        "meta_epoch": "2025-12-05T11:49:05.492352",
        "meta_mean_motion": 14.45768404,
        "meta_eccentricity": 0.00105609,
        "meta_inclination": 86.3804,
        "meta_ra_of_asc_node": 55.5915,
        "meta_arg_of_pericenter": 147.4129,
        "meta_mean_anomaly": 212.7727,
        "meta_ephemeris_type": 0,
        "meta_classification_type": "U",
        "meta_norad_cat_id": 36483,
        "meta_element_set_no": 999,
        "meta_rev_at_epoch": 65041,
        "meta_bstar": 0.0010569491,
        "meta_mean_motion_dot": 3.767e-05,
        "meta_mean_motion_ddot": 0,
        "tle_line1": "1 36483U 97051VZ  25339.49242468  .00003767  00000+0  10569-2 0  9992",
        "tle_line2": "2 36483  86.3804  55.5915 0010560 147.4129 212.7727 14.45768404650412"
      },
      "geometry": {
        "type": "Point",
        "coordinates": [
          -126.75058064000063,
          26.72250493335665
        ]
      }
    },
    {
      "type": "Feature",
      "properties": {
        "norad_id": 36490,
        "name": "IRIDIUM 33 DEB",
        "group": "iridium-33-debris",
        "lat": 67.61681801528442,
        "lon": -175.69193597655791,
        "alt_km": 631.7600765722318,
        "timestamp": "2025-12-06T16:45:43.106967+00:00",
        "meta_object_name": "IRIDIUM 33 DEB",
        "meta_object_id": "1997-051WG",
        "meta_epoch": "2025-12-06T08:07:15.540384",
        "meta_mean_motion": 14.75991157,
        "meta_eccentricity": 0.00055211,
        "meta_inclination": 86.365,
        "meta_ra_of_asc_node": 13.3502,
        "meta_arg_of_pericenter": 96.8941,
        "meta_mean_anomaly": 263.2906,
        "meta_ephemeris_type": 0,
        "meta_classification_type": "U",
        "meta_norad_cat_id": 36490,
        "meta_element_set_no": 999,
        "meta_rev_at_epoch": 86390,
        "meta_bstar": 0.0026916387,
        "meta_mean_motion_dot": 0.00018582,
        "meta_mean_motion_ddot": 0,
        "tle_line1": "1 36490U 97051WG  25340.33837431  .00018582  00000+0  26916-2 0  9999",
        "tle_line2": "2 36490  86.3650  13.3502 0005521  96.8941 263.2906 14.75991157863909"
      },
      "geometry": {
        "type": "Point",
        "coordinates": [
          -175.69193597655791,
          67.61681801528442
        ]
      }
    },
    {
      "type": "Feature",
      "properties": {
        "norad_id": 36493,
        "name": "IRIDIUM 33 DEB",
        "group": "iridium-33-debris",
        "lat": -85.94455334031711,
        "lon": -49.58805724115952,
        "alt_km": 687.1017272011513,
        "timestamp": "2025-12-06T16:45:43.106977+00:00",
        "meta_object_name": "IRIDIUM 33 DEB",
        "meta_object_id": "1997-051WK",
        "meta_epoch": "2025-12-04T20:54:22.682304",
        "meta_mean_motion": 14.65078368,
        "meta_eccentricity": 0.0011123,
        "meta_inclination": 86.3577,
        "meta_ra_of_asc_node": 15.1759,
        "meta_arg_of_pericenter": 30.554,
        "meta_mean_anomaly": 329.6318,
        "meta_ephemeris_type": 0,
        "meta_classification_type": "U",
        "meta_norad_cat_id": 36493,
        "meta_element_set_no": 999,
        "meta_rev_at_epoch": 74403,
        "meta_bstar": 0.0027859,
        "meta_mean_motion_dot": 0.00015002,
        "meta_mean_motion_ddot": 0,
        "tle_line1": "1 36493U 97051WK  25338.87109586  .00015002  00000+0  27859-2 0  9992",
        "tle_line2": "2 36493  86.3577  15.1759 0011123  30.5540 329.6318 14.65078368744034"
      },
      "geometry": {
        "type": "Point",
        "coordinates": [
          -49.58805724115952,
          -85.94455334031711
        ]
      }
    },
    {
      "type": "Feature",
      "properties": {
        "norad_id": 37548,
        "name": "IRIDIUM 33 DEB",
        "group": "iridium-33-debris",
        "lat": 40.619000982401815,
        "lon": 49.13369493025398,
        "alt_km": 735.5891193872885,
        "timestamp": "2025-12-06T16:45:43.106987+00:00",
        "meta_object_name": "IRIDIUM 33 DEB",
        "meta_object_id": "1997-051XH",
        "meta_epoch": "2025-11-29T22:23:36.250944",
        "meta_mean_motion": 14.5113469,
        "meta_eccentricity": 0.00243457,
        "meta_inclination": 86.3524,
        "meta_ra_of_asc_node": 48.9393,
        "meta_arg_of_pericenter": 232.6782,
        "meta_mean_anomaly": 127.2204,
        "meta_ephemeris_type": 0,
        "meta_classification_type": "U",
        "meta_norad_cat_id": 37548,
        "meta_element_set_no": 999,
        "meta_rev_at_epoch": 65346,
        "meta_bstar": 0.0012745087,
        "meta_mean_motion_dot": 5.093e-05,
        "meta_mean_motion_ddot": 0,
        "tle_line1": "1 37548U 97051XH  25333.93305846  .00005093  00000+0  12745-2 0  9990",
        "tle_line2": "2 37548  86.3524  48.9393 0024345 232.6782 127.2204 14.51134690653467"
      },
      "geometry": {
        "type": "Point",
        "coordinates": [
          49.13369493025398,
          40.619000982401815
        ]
      }
    },
    {
      "type": "Feature",
      "properties": {
        "norad_id": 37550,
        "name": "IRIDIUM 33 DEB",
        "group": "iridium-33-debris",
        "lat": 85.86482450202972,
        "lon": 145.37104393833224,
        "alt_km": 659.7594663507844,
        "timestamp": "2025-12-06T16:45:43.106997+00:00",
        "meta_object_name": "IRIDIUM 33 DEB",
        "meta_object_id": "1997-051XK",
        "meta_epoch": "2025-12-05T20:42:02.284416",
        "meta_mean_motion": 14.67065743,
        "meta_eccentricity": 0.00052853,
        "meta_inclination": 86.3779,
        "meta_ra_of_asc_node": 26.9229,
        "meta_arg_of_pericenter": 126.8629,
        "meta_mean_anomaly": 233.3071,
        "meta_ephemeris_type": 0,
        "meta_classification_type": "U",
        "meta_norad_cat_id": 37550,
        "meta_element_set_no": 999,
        "meta_rev_at_epoch": 86232,
        "meta_bstar": 0.0021067494,
        "meta_mean_motion_dot": 0.00011852,
        "meta_mean_motion_ddot": 0,
        "tle_line1": "1 37550U 97051XK  25339.86252644  .00011852  00000+0  21067-2 0  9995",
        "tle_line2": "2 37550  86.3779  26.9229 0005285 126.8629 233.3071 14.67065743862329"
      },
      "geometry": {
        "type": "Point",
        "coordinates": [
          145.37104393833224,
          85.86482450202972
        ]
      }
    }
  ]
}